FENGYUN 1C DEB          
1 32168U 99025CTN 24318.39500445  .00005098  00000+0  37603-2 0  9995
2 32168 101.6513 287.0251 0255583 122.4741 240.1388 13.81718787580238
FENGYUN 1C DEB          
1 32169U 99025CTP 24318.76308106  .00026750  00000+0  74122-2 0  9992
2 32169  98.5633 130.4316 0056244 252.3564 107.1480 14.45588923910126
FENGYUN 1C DEB          
1 32171U 99025CTR 24318.16578116  .00009140  00000+0  84542-2 0  9990
2 32171 102.8197 103.6889 0493791 138.6111  32.0677 13.38753223553277
FENGYUN 1C DEB          
1 32172U 99025CTS 24316.34765100  .00052359  00000+0  36755-2 0  9993
2 32172  99.0848 336.7715 0084257 173.6915 186.5387 15.02070855929387
FENGYUN 1C DEB          
1 32174U 99025CTU 24318.43609953  .00001386  00000+0  63397-3 0  9997
2 32174  98.6443  26.0528 0151901 301.0269  57.6065 14.17114560585191
FENGYUN 1C DEB          
1 32175U 99025CTV 24317.26017437  .00008851  00000+0  64193-2 0  9996
2 32175  98.8074 318.4825 0158388 330.1284  29.0907 13.90799253543345
FENGYUN 1C DEB          
1 32177U 99025CTX 24318.67327954  .00009735  00000+0  25498-2 0  9999
2 32177  99.0301 291.3914 0057823 148.0447 212.4272 14.48504343653163
FENGYUN 1C DEB          
1 32178U 99025CTY 24316.05849217  .00013022  00000+0  58795-2 0  9991
2 32178 100.2707 246.2500 0100117 332.2436  27.3413 14.19621133583672
FENGYUN 1C DEB          
1 32179U 99025CTZ 24318.08048161  .00001371  00000+0  82523-3 0  9997
2 32179  98.9654   7.6275 0145908 209.2514 181.1592 14.03279944601920
FENGYUN 1C DEB          
1 32180U 99025CUA 24318.33505214  .00000287  00000+0  28813-3 0  9991
2 32180  99.6344 344.7418 0137051 168.1937 205.3267 13.82188608888198
FENGYUN 1C DEB          
1 32181U 99025CUB 24317.89816182  .00007575  00000+0  18327-2 0  9996
2 32181  99.5000   3.8999 0079908 177.6720 355.4777 14.51439424910545
FENGYUN 1C DEB          
1 32183U 99025CUD 24317.90337346  .00002243  00000+0  13109-2 0  9990
2 32183  98.7554  14.9560 0044344  93.8865 266.7377 14.08857264888816
FENGYUN 1C DEB          
1 32184U 99025CUE 24318.25376605  .00039156  00000+0  23377-2 0  9992
2 32184  98.0957  62.2259 0157976 264.4191  93.8997 15.01055421924123
FENGYUN 1C DEB          
1 32185U 99025CUF 24318.67028161  .00078170  00000+0  84155-2 0  9990
2 32185  98.9113 113.3007 0289101 186.6747 173.0567 14.62167081891741
FENGYUN 1C DEB          
1 32186U 99025CUG 24318.38573535  .00001946  00000+0  15660-2 0  9991
2 32186  99.6478 358.3744 0278479 148.1275 225.9528 13.75206800571877
FENGYUN 1C DEB          
1 32187U 99025CUH 24316.51452240  .00000701  00000+0  88989-3 0  9997
2 32187  99.5279  46.3173 0294274  57.3751 317.4658 13.50088227609111
FENGYUN 1C DEB          
1 32191U 99025CUM 24317.39639881  .00006762  00000+0  29551-2 0  9999
2 32191  98.7383  10.7315 0097989 251.2760 107.7763 14.21581939588766
FENGYUN 1C DEB          
1 32192U 99025CUN 24318.67248674  .00000799  00000+0  68565-3 0  9991
2 32192  98.6969 214.3667 0182656 150.0955 211.0787 13.82041924872689
FENGYUN 1C DEB          
1 32195U 99025CUR 24318.27220046  .00002188  00000+0  12978-2 0  9993
2 32195  98.7752 325.6921 0070142 332.5161  27.2306 14.07382810584318
FENGYUN 1C DEB          
1 32197U 99025CUT 24318.44963605  .00003591  00000+0  11901-2 0  9993
2 32197  98.9235 210.7827 0165134 302.3941 233.6263 14.31088532887800
FENGYUN 1C DEB          
1 32198U 99025CUU 24313.19421087  .00008097  00000+0  48322-2 0  9997
2 32198  98.3197 125.0009 0099237 353.5828   6.4064 14.04994162889064
FENGYUN 1C DEB          
1 32200U 99025CUW 24318.37036998  .00003869  00000+0  20638-2 0  9991
2 32200  98.8268   6.5840 0040351 334.1954  25.7205 14.13465430887875
FENGYUN 1C DEB          
1 32203U 99025CUZ 24318.20810327  .00035039  00000+0  10133-2 0  9995
2 32203  97.0560 225.5319 0218570  60.5028 301.7811 15.15098161928276
FENGYUN 1C DEB          
1 32205U 99025CVB 24316.78995006  .00001078  00000+0  59536-3 0  9993
2 32205  98.6831 326.2279 0010771 345.5881 188.2536 14.13504882889037
FENGYUN 1C DEB          
1 32207U 99025CVD 24318.47888404  .00002454  00000+0  79424-3 0  9993
2 32207  99.8374 213.9876 0086483 187.8270 344.5990 14.38039159906758
FENGYUN 1C DEB          
1 32209U 99025CVF 24317.86423360  .00003863  00000+0  46840-2 0  9993
2 32209  99.3952 282.6877 0336256 291.3366  65.2189 13.45481937846622
FENGYUN 1C DEB          
1 32212U 99025CVJ 24318.09665292  .00002999  00000+0  89192-3 0  9992
2 32212  99.6074   2.4396 0141984 140.6070 248.1800 14.38360235903848
FENGYUN 1C DEB          
1 32214U 99025CVL 24318.37310126  .00010238  00000+0  76966-2 0  9997
2 32214  99.0712 349.4656 0205999  26.3120 345.4885 13.85010758569518
FENGYUN 1C DEB          
1 32218U 99025CVQ 24318.43346644  .00014063  00000+0  35454-2 0  9999
2 32218  98.8067 125.9367 0069382 183.8195 234.3536 14.49758092905056
FENGYUN 1C DEB          
1 32221U 99025CVT 24317.62433925  .00004211  00000+0  82461-3 0  9997
2 32221  98.5151  91.0302 0150507 282.6238  75.8165 14.56391316915540
FENGYUN 1C DEB          
1 32223U 99025CVV 24318.17888424  .00005016  00000+0  24727-2 0  9992
2 32223  98.8585  31.8114 0049704   9.7008  20.2687 14.17290937586279
FENGYUN 1C DEB          
1 32224U 99025CVW 24316.54202133  .00002783  00000+0  10030-2 0  9999
2 32224  98.9394 247.6667 0077983 143.7671 216.8829 14.32809787901913
FENGYUN 1C DEB          
1 32225U 99025CVX 24317.83787970  .00001091  00000+0  60067-3 0  9997
2 32225  99.1437 353.3701 0071698 237.4005 122.0231 14.12552284890218
FENGYUN 1C DEB          
1 32227U 99025CVZ 24318.47755487  .01164262  00000+0  56918-2 0  9998
2 32227  99.4399  34.2547 0023090 241.5456 118.3478 15.79454722935563
FENGYUN 1C DEB          
1 32230U 99025CWC 24318.31162444  .00027250  00000+0  80330-2 0  9999
2 32230  98.8617  81.6582 0069354 196.2825 193.6131 14.42124173549552
FENGYUN 1C DEB          
1 32234U 99025CWG 24314.10913062  .00006267  00000+0  45398-2 0  9996
2 32234  98.5605 188.0237 0140772   0.1524 359.9657 13.92157591876582
FENGYUN 1C DEB          
1 32241U 99025CWP 24318.24441760  .00008492  00000+0  32717-2 0  9997
2 32241  99.1057 326.3341 0153668 280.3260  78.0626 14.24254991881981
FENGYUN 1C DEB          
1 32243U 99025CWR 24318.43789854  .00010810  00000+0  52175-2 0  9996
2 32243  98.2988  12.0877 0283182 161.9618 199.1849 13.99887738880618
FENGYUN 1C DEB          
1 32245U 99025CWT 24316.92660863  .00020993  00000+0  34311-2 0  9993
2 32245  98.6527 121.3066 0116016 144.6406 216.2561 14.66443830915685
FENGYUN 1C DEB          
1 32303U 99025CWU 24299.45415147  .00011635  00000+0  57122-2 0  9997
2 32303  97.7967 136.8037 0102144  93.9211 267.3650 14.15119645868281
FENGYUN 1C DEB          
1 32304U 99025CWV 24318.00269521  .00009607  00000+0  27332-2 0  9990
2 32304  99.3810 223.6237 0055146 316.1744  43.5074 14.44662871505619
FENGYUN 1C DEB          
1 32308U 99025CWZ 24312.72768121  .00013633  00000+0  84103-2 0  9990
2 32308  97.7831  56.5881 0114571 133.0431 228.0403 14.02246503597984
FENGYUN 1C DEB          
1 32314U 99025CXF 24318.90040736  .00013233  00000+0  17879-2 0  9990
2 32314  98.8850  20.6727 0174406 311.6663  46.9720 14.69150468916249
FENGYUN 1C DEB          
1 32316U 99025CXH 24318.64725374  .00006669  00000+0  19023-2 0  9999
2 32316  99.5239 288.2575 0032759  54.7080   2.5603 14.45257321900695
FENGYUN 1C DEB          
1 32320U 99025CXM 24318.09684833  .00006504  00000+0  23688-2 0  9997
2 32320 100.3662  90.3505 0058239  71.5985 289.1513 14.32616482565141
FENGYUN 1C DEB          
1 32322U 99025CXP 24318.12995915  .00003640  00000+0  45264-2 0  9991
2 32322  98.3728 264.7818 0424193  12.6555 348.4838 13.33048308551196
FENGYUN 1C DEB          
1 32323U 99025CXQ 24311.42409041  .00017846  00000+0  12621-1 0  9991
2 32323  98.5514 117.5337 0166617 244.2344 114.1542 13.91389613546775
FENGYUN 1C DEB          
1 32324U 99025CXR 24318.16844545  .00001623  00000+0  97021-3 0  9997
2 32324  99.5469  31.5167 0050916  31.7955 328.6269 14.08082406584435
FENGYUN 1C DEB          
1 32326U 99025CXT 24318.38057486  .00001524  00000+0  10749-2 0  9994
2 32326  98.4466 288.5265 0391482 112.3786 251.9329 13.67928822577879
FENGYUN 1C DEB          
1 32331U 99025CXY 24317.04618358  .00039050  00000+0  10983-1 0  9997
2 32331  99.1891 237.2562 0021020 252.0401 107.8496 14.45554741548526
FENGYUN 1C DEB          
1 32332U 99025CXZ 24317.41640211  .00005986  00000+0  31720-2 0  9996
2 32332  99.1629   7.6494 0294087 314.4724  43.2725 13.94209473875214
FENGYUN 1C DEB          
1 32334U 99025CYB 24318.05995311  .00001615  00000+0  10925-2 0  9992
2 32334  99.2933   0.2061 0063931 281.7675  77.6322 14.00863537884126
FENGYUN 1C DEB          
1 32340U 99025CYH 24318.65546917  .00021017  00000+0  44673-2 0  9994
2 32340  98.9690 281.1752 0050602  67.1853 293.4677 14.58267327914180
FENGYUN 1C DEB          
1 32342U 99025CYK 24318.01439531  .00000485  00000+0  28191-3 0  9993
2 32342  98.6853 332.5342 0008334  36.1915  28.0271 14.13154264881424
FENGYUN 1C DEB          
1 32343U 99025CYL 24311.26608285  .00003091  00000+0  13433-2 0  9996
2 32343  98.5830 303.8070 0152839 207.2513 152.0584 14.18741550590183
FENGYUN 1C DEB          
1 32350U 99025CYT 24317.87007137  .00008251  00000+0  13712-2 0  9999
2 32350  98.2829   3.9226 0282756  70.5827 292.5691 14.47221122918046
FENGYUN 1C DEB          
1 32352U 99025CYV 24317.51649165  .00003296  00000+0  96983-3 0  9991
2 32352  98.7798 221.1202 0123413 267.5028  91.2026 14.40077566909333
FENGYUN 1C DEB          
1 32353U 99025CYW 24318.25566241  .00008585  00000+0  55227-2 0  9998
2 32353  98.9083 137.3546 0131141 216.2560 142.9663 13.99182756879362
FENGYUN 1C DEB          
1 32355U 99025CYY 24316.21386036  .00107114  00000+0  18439-1 0  9997
2 32355 100.3791 116.3073 0082553 193.7607 340.2675 14.65717228590855
FENGYUN 1C DEB          
1 32356U 99025CYZ 24318.49004530  .00007663  00000+0  49307-2 0  9993
2 32356 102.4960  30.7798 0132905 250.4822 108.1934 13.99282110885643
